start=new Date('2023-01-12T00:00:00.000Z').valueOf();
sats=[{"NORAD_CAT_ID":"53610","REV_AT_EPOCH":"2157","MEAN_MOTION_DOT":"-0.00000308","EPHEMERIS_TYPE":"0","TLE_LINE2":"2 53610  53.2185  10.1278 0002028  39.1723 320.9415 15.08835711 21575","MEAN_MOTION_DDOT":"0.0000000000000","INCLINATION":"53.2185","SITE":"AFETR","COUNTRY_CODE":"US","APOAPSIS":"541.161","CENTER_NAME":"EARTH","ARG_OF_PERICENTER":"39.1723","OBJECT_NAME":"STARLINK-4610","GP_ID":"222827165","ELEMENT_SET_NO":"999","SEMIMAJOR_AXIS":"6917.893","MEAN_ELEMENT_THEORY":"SGP4","FILE":"3740419","PERIOD":"95.438","EPOCH":"2023-01-11T17:13:11.665632","RA_OF_ASC_NODE":"10.1278","DECAY_DATE":null,"TLE_LINE1":"1 53610U 22104Y   23011.71749613 -.00000308  00000-0 -12533-5 0  9991","OBJECT_ID":"2022-104Y","ECCENTRICITY":"0.00020280","OBJECT_TYPE":"PAYLOAD","PERIAPSIS":"538.356","LAUNCH_DATE":"2022-08-28","REF_FRAME":"TEME","MEAN_MOTION":"15.08835711","BSTAR":"-0.00000125330000","MEAN_ANOMALY":"320.9415","TIME_SYSTEM":"UTC","CLASSIFICATION_TYPE":"U","RCS_SIZE":"LARGE"},{"TLE_LINE1":"1 53611U 22104Z   23011.72758873 -.00000640  00000-0 -22135-4 0  9998","OBJECT_ID":"2022-104Z","ECCENTRICITY":"0.00017820","RA_OF_ASC_NODE":"10.1925","DECAY_DATE":null,"EPOCH":"2023-01-11T17:27:43.666272","PERIOD":"95.437","MEAN_ELEMENT_THEORY":"SGP4","FILE":"3740419","RCS_SIZE":"LARGE","CLASSIFICATION_TYPE":"U","MEAN_ANOMALY":"314.3740","BSTAR":"-0.00002213500000","TIME_SYSTEM":"UTC","LAUNCH_DATE":"2022-08-28","PERIAPSIS":"538.490","REF_FRAME":"TEME","MEAN_MOTION":"15.08847310","OBJECT_TYPE":"PAYLOAD","SITE":"AFETR","MEAN_MOTION_DDOT":"0.0000000000000","INCLINATION":"53.2202","TLE_LINE2":"2 53611  53.2202  10.1925 0001782  45.7399 314.3740 15.08847310 21692","REV_AT_EPOCH":"2169","MEAN_MOTION_DOT":"-0.00000640","NORAD_CAT_ID":"53611","EPHEMERIS_TYPE":"0","ELEMENT_SET_NO":"999","GP_ID":"222827854","SEMIMAJOR_AXIS":"6917.858","OBJECT_NAME":"STARLINK-4650","COUNTRY_CODE":"US","CENTER_NAME":"EARTH","ARG_OF_PERICENTER":"45.7399","APOAPSIS":"540.956"},{"EPHEMERIS_TYPE":"0","REV_AT_EPOCH":"2157","MEAN_MOTION_DOT":"0.00000754","NORAD_CAT_ID":"53612","TLE_LINE2":"2 53612  53.2188  10.0997 0002177  69.8104 290.3123 15.08838031 21579","SITE":"AFETR","MEAN_MOTION_DDOT":"0.0000000000000","INCLINATION":"53.2188","ARG_OF_PERICENTER":"69.8104","CENTER_NAME":"EARTH","APOAPSIS":"541.257","COUNTRY_CODE":"US","OBJECT_NAME":"STARLINK-4658","SEMIMAJOR_AXIS":"6917.886","GP_ID":"222827623","ELEMENT_SET_NO":"999","FILE":"3740419","MEAN_ELEMENT_THEORY":"SGP4","EPOCH":"2023-01-11T17:06:31.921344","PERIOD":"95.438","DECAY_DATE":null,"RA_OF_ASC_NODE":"10.0997","ECCENTRICITY":"0.00021770","OBJECT_ID":"2022-104AA","TLE_LINE1":"1 53612U 22104AA  23011.71286946  .00000754  00000-0  65457-4 0  9993","OBJECT_TYPE":"PAYLOAD","LAUNCH_DATE":"2022-08-28","REF_FRAME":"TEME","PERIAPSIS":"538.245","MEAN_MOTION":"15.08838031","CLASSIFICATION_TYPE":"U","TIME_SYSTEM":"UTC","BSTAR":"0.00006545700000","MEAN_ANOMALY":"290.3123","RCS_SIZE":"LARGE"},{"SITE":"AFETR","MEAN_MOTION_DDOT":"0.0000000000000","INCLINATION":"53.2197","TLE_LINE2":"2 53613  53.2197  10.1487 0001964  45.5659 314.5494 15.08851564 21570","REV_AT_EPOCH":"2157","MEAN_MOTION_DOT":"-0.00001194","NORAD_CAT_ID":"53613","EPHEMERIS_TYPE":"0","GP_ID":"222826935","ELEMENT_SET_NO":"999","SEMIMAJOR_AXIS":"6917.845","OBJECT_NAME":"STARLINK-4655","COUNTRY_CODE":"US","ARG_OF_PERICENTER":"45.5659","CENTER_NAME":"EARTH","APOAPSIS":"541.069","TLE_LINE1":"1 53613U 22104AB  23011.72021318 -.00001194  00000-0 -56878-4 0  9993","OBJECT_ID":"2022-104AB","ECCENTRICITY":"0.00019640","RA_OF_ASC_NODE":"10.1487","DECAY_DATE":null,"EPOCH":"2023-01-11T17:17:06.418752","PERIOD":"95.437","MEAN_ELEMENT_THEORY":"SGP4","FILE":"3740419","RCS_SIZE":"LARGE","CLASSIFICATION_TYPE":"U","BSTAR":"-0.00005687800000","TIME_SYSTEM":"UTC","MEAN_ANOMALY":"314.5494","LAUNCH_DATE":"2022-08-28","PERIAPSIS":"538.351","REF_FRAME":"TEME","MEAN_MOTION":"15.08851564","OBJECT_TYPE":"PAYLOAD"},{"ECCENTRICITY":"0.00022200","TLE_LINE1":"1 53616U 22104AE  23011.92081852 -.00000922  00000-0 -39852-4 0  9998","OBJECT_ID":"2022-104AE","DECAY_DATE":null,"RA_OF_ASC_NODE":"359.1019","PERIOD":"95.438","EPOCH":"2023-01-11T22:05:58.720128","FILE":"3740419","MEAN_ELEMENT_THEORY":"SGP4","RCS_SIZE":"LARGE","BSTAR":"-0.00003985200000","MEAN_ANOMALY":"315.0463","TIME_SYSTEM":"UTC","CLASSIFICATION_TYPE":"U","MEAN_MOTION":"15.08832644","LAUNCH_DATE":"2022-08-28","PERIAPSIS":"538.232","REF_FRAME":"TEME","OBJECT_TYPE":"PAYLOAD","MEAN_MOTION_DDOT":"0.0000000000000","INCLINATION":"53.2182","SITE":"AFETR","TLE_LINE2":"2 53616  53.2182 359.1019 0002220  45.0709 315.0463 15.08832644 21852","EPHEMERIS_TYPE":"0","NORAD_CAT_ID":"53616","MEAN_MOTION_DOT":"-0.00000922","REV_AT_EPOCH":"2185","SEMIMAJOR_AXIS":"6917.903","ELEMENT_SET_NO":"999","GP_ID":"222826698","OBJECT_NAME":"STARLINK-4605","APOAPSIS":"541.304","ARG_OF_PERICENTER":"45.0709","CENTER_NAME":"EARTH","COUNTRY_CODE":"US"},{"DECAY_DATE":null,"RA_OF_ASC_NODE":"10.0833","ECCENTRICITY":"0.00024550","OBJECT_ID":"2022-104AF","TLE_LINE1":"1 53617U 22104AF  23011.70917896 -.00001062  00000-0 -48596-4 0  9992","FILE":"3740419","MEAN_ELEMENT_THEORY":"SGP4","PERIOD":"95.438","EPOCH":"2023-01-11T17:01:13.062144","BSTAR":"-0.00004859600000","MEAN_ANOMALY":"323.7492","TIME_SYSTEM":"UTC","CLASSIFICATION_TYPE":"U","RCS_SIZE":"LARGE","OBJECT_TYPE":"PAYLOAD","MEAN_MOTION":"15.08831970","LAUNCH_DATE":"2022-08-28","PERIAPSIS":"538.072","REF_FRAME":"TEME","TLE_LINE2":"2 53617  53.2199  10.0833 0002455  36.3667 323.7492 15.08831970 21572","INCLINATION":"53.2199","MEAN_MOTION_DDOT":"0.0000000000000","SITE":"AFETR","EPHEMERIS_TYPE":"0","NORAD_CAT_ID":"53617","MEAN_MOTION_DOT":"-0.00001062","REV_AT_EPOCH":"2157","OBJECT_NAME":"STARLINK-4601","SEMIMAJOR_AXIS":"6917.905","ELEMENT_SET_NO":"999","GP_ID":"222827396","APOAPSIS":"541.468","CENTER_NAME":"EARTH","ARG_OF_PERICENTER":"36.3667","COUNTRY_CODE":"US"},{"MEAN_MOTION_DOT":"-0.00000519","REV_AT_EPOCH":"2099","NORAD_CAT_ID":"53618","EPHEMERIS_TYPE":"0","TLE_LINE2":"2 53618  53.2195  10.0176 0002301  33.4964 326.6174 15.08832766 20995","SITE":"AFETR","INCLINATION":"53.2195","MEAN_MOTION_DDOT":"0.0000000000000","COUNTRY_CODE":"US","ARG_OF_PERICENTER":"33.4964","CENTER_NAME":"EARTH","APOAPSIS":"541.359","OBJECT_NAME":"STARLINK-4604","GP_ID":"222828081","ELEMENT_SET_NO":"999","SEMIMAJOR_AXIS":"6917.903","MEAN_ELEMENT_THEORY":"SGP4","FILE":"3740419","EPOCH":"2023-01-11T16:45:18.639360","PERIOD":"95.438","RA_OF_ASC_NODE":"10.0176","DECAY_DATE":null,"OBJECT_ID":"2022-104AG","TLE_LINE1":"1 53618U 22104AG  23011.69813240 -.00000519  00000-0 -14515-4 0  9999","ECCENTRICITY":"0.00023010","OBJECT_TYPE":"PAYLOAD","LAUNCH_DATE":"2022-08-28","MEAN_MOTION":"15.08832766","PERIAPSIS":"538.176","REF_FRAME":"TEME","CLASSIFICATION_TYPE":"U","TIME_SYSTEM":"UTC","BSTAR":"-0.00001451500000","MEAN_ANOMALY":"326.6174","RCS_SIZE":"LARGE"},{"TLE_LINE2":"2 53619  53.2163  10.0526 0002527  28.8234 331.2898 15.08853954 21570","SITE":"AFETR","INCLINATION":"53.2163","MEAN_MOTION_DDOT":"0.0000000000000","REV_AT_EPOCH":"2157","MEAN_MOTION_DOT":"0.00006028","NORAD_CAT_ID":"53619","EPHEMERIS_TYPE":"0","OBJECT_NAME":"STARLINK-4609","ELEMENT_SET_NO":"999","GP_ID":"222826467","SEMIMAJOR_AXIS":"6917.838","COUNTRY_CODE":"US","ARG_OF_PERICENTER":"28.8234","CENTER_NAME":"EARTH","APOAPSIS":"541.451","RA_OF_ASC_NODE":"10.0526","DECAY_DATE":null,"OBJECT_ID":"2022-104AH","TLE_LINE1":"1 53619U 22104AH  23011.70548201  .00006028  00000-0  39638-3 0  9995","ECCENTRICITY":"0.00025270","MEAN_ELEMENT_THEORY":"SGP4","FILE":"3740419","EPOCH":"2023-01-11T16:55:53.645664","PERIOD":"95.437","CLASSIFICATION_TYPE":"U","BSTAR":"0.00039638000000","MEAN_ANOMALY":"331.2898","TIME_SYSTEM":"UTC","RCS_SIZE":"LARGE","OBJECT_TYPE":"PAYLOAD","PERIAPSIS":"537.955","LAUNCH_DATE":"2022-08-28","REF_FRAME":"TEME","MEAN_MOTION":"15.08853954"},{"SITE":"AFETR","MEAN_MOTION_DDOT":"0.0000000000000","INCLINATION":"53.2202","TLE_LINE2":"2 53620  53.2202  11.7536 0002505  34.7468 325.3688 15.08844775 21624","EPHEMERIS_TYPE":"0","REV_AT_EPOCH":"2162","MEAN_MOTION_DOT":"0.00001390","NORAD_CAT_ID":"53620","SEMIMAJOR_AXIS":"6917.866","ELEMENT_SET_NO":"999","GP_ID":"222767963","OBJECT_NAME":"STARLINK-4615","ARG_OF_PERICENTER":"34.7468","CENTER_NAME":"EARTH","APOAPSIS":"541.464","COUNTRY_CODE":"US","ECCENTRICITY":"0.00025050","TLE_LINE1":"1 53620U 22104AJ  23011.29329730  .00001390  00000-0  10539-3 0  9991","OBJECT_ID":"2022-104AJ","DECAY_DATE":null,"RA_OF_ASC_NODE":"11.7536","EPOCH":"2023-01-11T07:02:20.886720","PERIOD":"95.437","FILE":"3740054","MEAN_ELEMENT_THEORY":"SGP4","RCS_SIZE":"LARGE","CLASSIFICATION_TYPE":"U","BSTAR":"0.00010539000000","MEAN_ANOMALY":"325.3688","TIME_SYSTEM":"UTC","PERIAPSIS":"537.998","LAUNCH_DATE":"2022-08-28","MEAN_MOTION":"15.08844775","REF_FRAME":"TEME","OBJECT_TYPE":"PAYLOAD"},{"EPHEMERIS_TYPE":"0","NORAD_CAT_ID":"53621","REV_AT_EPOCH":"2159","MEAN_MOTION_DOT":"-0.00001135","TLE_LINE2":"2 53621  53.2179   9.4414 0002904  35.6480 324.4705 15.08851321 21595","INCLINATION":"53.2179","MEAN_MOTION_DDOT":"0.0000000000000","SITE":"AFETR","APOAPSIS":"541.720","ARG_OF_PERICENTER":"35.6480","CENTER_NAME":"EARTH","COUNTRY_CODE":"US","OBJECT_NAME":"STARLINK-4608","SEMIMAJOR_AXIS":"6917.846","ELEMENT_SET_NO":"999","GP_ID":"222827855","FILE":"3740419","MEAN_ELEMENT_THEORY":"SGP4","PERIOD":"95.437","EPOCH":"2023-01-11T20:01:21.194976","DECAY_DATE":null,"RA_OF_ASC_NODE":"9.4414","ECCENTRICITY":"0.00029040","TLE_LINE1":"1 53621U 22104AK  23011.83427309 -.00001135  00000-0 -53188-4 0  9990","OBJECT_ID":"2022-104AK","OBJECT_TYPE":"PAYLOAD","REF_FRAME":"TEME","LAUNCH_DATE":"2022-08-28","PERIAPSIS":"537.702","MEAN_MOTION":"15.08851321","BSTAR":"-0.00005318800000","TIME_SYSTEM":"UTC","MEAN_ANOMALY":"324.4705","CLASSIFICATION_TYPE":"U","RCS_SIZE":"LARGE"}];
